[{"OBJECT_NAME":"STARLINK-31256","OBJECT_ID":"2024-044K","EPOCH":"2026-03-09T18:49:54.317280","MEAN_MOTION":15.27568251,"ECCENTRICITY":0.00010304,"INCLINATION":43,"RA_OF_ASC_NODE":106.1864,"ARG_OF_PERICENTER":276.2359,"MEAN_ANOMALY":83.8375,"EPHEMERIS_TYPE":0,"CLASSIFICATION_TYPE":"U","NORAD_CAT_ID":59161,"ELEMENT_SET_NO":999,"REV_AT_EPOCH":11361,"BSTAR":2.1629463e-5,"MEAN_MOTION_DOT":3.33e-6,"MEAN_MOTION_DDOT":0},{"OBJECT_NAME":"TITAN 3C TRANSTAGE DEB","OBJECT_ID":"1965-082PT","EPOCH":"2026-03-09T13:23:41.116128","MEAN_MOTION":15.28908269,"ECCENTRICITY":0.00104371,"INCLINATION":32.0266,"RA_OF_ASC_NODE":255.1391,"ARG_OF_PERICENTER":172.8339,"MEAN_ANOMALY":187.2474,"EPHEMERIS_TYPE":0,"CLASSIFICATION_TYPE":"U","NORAD_CAT_ID":3462,"ELEMENT_SET_NO":999,"REV_AT_EPOCH":24824,"BSTAR":0.0004444037,"MEAN_MOTION_DOT":0.00012939,"MEAN_MOTION_DDOT":0}]
